{"type": "FeatureCollection", "features": [ {"type": "Feature", "properties": {"norad_id": 51444, "name": "CSG-2", "group": "resource", "lat": 10.541970382901654, "lon": 157.36131516388213, "alt_km": 623.906291531127, "timestamp": "2025-12-03T08:58:45.656999+00:00", "meta": {"OBJECT_NAME": "CSG-2", "OBJECT_ID": "2022-008A", "EPOCH": "2025-12-03T04:04:14.454336", "MEAN_MOTION": 14.82147266, "ECCENTRICITY": 0.0001479, "INCLINATION": 97.8807, "RA_OF_ASC_NODE": 158.637, "ARG_OF_PERICENTER": 90.4011, "MEAN_ANOMALY": 269.7371, "EPHEMERIS_TYPE": 0, "CLASSIFICATION_TYPE": "U", "NORAD_CAT_ID": 51444, "ELEMENT_SET_NO": 999, "REV_AT_EPOCH": 20755, "BSTAR": 0.00010453, "MEAN_MOTION_DOT": 7.8e-06, "MEAN_MOTION_DDOT": 0}, "tle": {"line1": "1 51444U 22008A   25337.16961174  .00000780  00000+0  10453-3 0  9995", "line2": "2 51444  97.8807 158.6370 0001479  90.4011 269.7371 14.82147266207550"}}, "geometry": {"type": "Point", "coordinates": [157.36131516388213, 10.541970382901654]}}, {"type": "Feature", "properties": {"norad_id": 52912, "name": "GAOFEN-12 03", "group": "resource", "lat": 13.41990979760115, "lon": -136.94689561498123, "alt_km": 631.0229996506496, "timestamp": "2025-12-03T08:58:45.657009+00:00", "meta": {"OBJECT_NAME": "GAOFEN-12 03", "OBJECT_ID": "2022-069A", "EPOCH": "2025-12-03T04:02:56.601888", "MEAN_MOTION": 14.79570521, "ECCENTRICITY": 0.0002321, "INCLINATION": 97.8487, "RA_OF_ASC_NODE": 224.7386, "ARG_OF_PERICENTER": 76.011, "MEAN_ANOMALY": 284.136, "EPHEMERIS_TYPE": 0, "CLASSIFICATION_TYPE": "U", "NORAD_CAT_ID": 52912, "ELEMENT_SET_NO": 999, "REV_AT_EPOCH": 18562, "BSTAR": 0.00021853, "MEAN_MOTION_DOT": 1.585e-05, "MEAN_MOTION_DDOT": 0}, "tle": {"line1": "1 52912U 22069A   25337.16871067  .00001585  00000+0  21853-3 0  9994", "line2": "2 52912  97.8487 224.7386 0002321  76.0110 284.1360 14.79570521185626"}}, "geometry": {"type": "Point", "coordinates": [-136.94689561498123, 13.41990979760115]}}, {"type": "Feature", "properties": {"norad_id": 54754, "name": "SWOT", "group": "resource", "lat": 39.53481760168672, "lon": 109.18018697292382, "alt_km": 889.7322681204059, "timestamp": "2025-12-03T08:58:45.657019+00:00", "meta": {"OBJECT_NAME": "SWOT", "OBJECT_ID": "2022-173A", "EPOCH": "2025-12-03T04:53:12.482016", "MEAN_MOTION": 14.00172364, "ECCENTRICITY": 3.11e-05, "INCLINATION": 77.6099, "RA_OF_ASC_NODE": 299.8634, "ARG_OF_PERICENTER": 139.8881, "MEAN_ANOMALY": 220.2294, "EPHEMERIS_TYPE": 0, "CLASSIFICATION_TYPE": "U", "NORAD_CAT_ID": 54754, "ELEMENT_SET_NO": 999, "REV_AT_EPOCH": 15172, "BSTAR": 5.9767e-05, "MEAN_MOTION_DOT": 8.6e-07, "MEAN_MOTION_DDOT": 0}, "tle": {"line1": "1 54754U 22173A   25337.20361669  .00000086  00000+0  59767-4 0  9994", "line2": "2 54754  77.6099 299.8634 0000311 139.8881 220.2294 14.00172364151724"}}, "geometry": {"type": "Point", "coordinates": [109.18018697292382, 39.53481760168672]}}, {"type": "Feature", "properties": {"norad_id": 57654, "name": "GAOFEN-12 04", "group": "resource", "lat": -0.44283085566971314, "lon": 73.21238801637288, "alt_km": 633.8404252999271, "timestamp": "2025-12-03T08:58:45.657030+00:00", "meta": {"OBJECT_NAME": "GAOFEN-12 04", "OBJECT_ID": "2023-123A", "EPOCH": "2025-12-03T04:55:15.940704", "MEAN_MOTION": 14.79652624, "ECCENTRICITY": 0.000146, "INCLINATION": 97.9113, "RA_OF_ASC_NODE": 253.1075, "ARG_OF_PERICENTER": 71.2616, "MEAN_ANOMALY": 288.8754, "EPHEMERIS_TYPE": 0, "CLASSIFICATION_TYPE": "U", "NORAD_CAT_ID": 57654, "ELEMENT_SET_NO": 999, "REV_AT_EPOCH": 12364, "BSTAR": 0.00026953, "MEAN_MOTION_DOT": 1.971e-05, "MEAN_MOTION_DDOT": 0}, "tle": {"line1": "1 57654U 23123A   25337.20504561  .00001971  00000+0  26953-3 0  9996", "line2": "2 57654  97.9113 253.1075 0001460  71.2616 288.8754 14.79652624123640"}}, "geometry": {"type": "Point", "coordinates": [73.21238801637288, -0.44283085566971314]}}, {"type": "Feature", "properties": {"norad_id": 59065, "name": "PARS 1", "group": "resource", "lat": -40.779933064392935, "lon": -45.396928638379684, "alt_km": 457.5101066260104, "timestamp": "2025-12-03T08:58:45.657040+00:00", "meta": {"OBJECT_NAME": "PARS 1", "OBJECT_ID": "2024-039Q", "EPOCH": "2025-12-03T04:28:54.080256", "MEAN_MOTION": 15.4064416, "ECCENTRICITY": 0.0012656, "INCLINATION": 97.4617, "RA_OF_ASC_NODE": 307.9205, "ARG_OF_PERICENTER": 100.3898, "MEAN_ANOMALY": 259.8775, "EPHEMERIS_TYPE": 0, "CLASSIFICATION_TYPE": "U", "NORAD_CAT_ID": 59065, "ELEMENT_SET_NO": 999, "REV_AT_EPOCH": 9841, "BSTAR": 0.00037147, "MEAN_MOTION_DOT": 0.00015104, "MEAN_MOTION_DDOT": 0}, "tle": {"line1": "1 59065U 24039Q   25337.18673704  .00015104  00000+0  37147-3 0  9994", "line2": "2 59065  97.4617 307.9205 0012656 100.3898 259.8775 15.40644160 98412"}}, "geometry": {"type": "Point", "coordinates": [-45.396928638379684, -40.779933064392935]}}, {"type": "Feature", "properties": {"norad_id": 59371, "name": "RESURS-P 4", "group": "resource", "lat": 36.625174408521275, "lon": -81.53468741440281, "alt_km": 466.0293296692216, "timestamp": "2025-12-03T08:58:45.657050+00:00", "meta": {"OBJECT_NAME": "RESURS-P 4", "OBJECT_ID": "2024-061A", "EPOCH": "2025-12-03T04:06:56.400768", "MEAN_MOTION": 15.31965378, "ECCENTRICITY": 0.0002169, "INCLINATION": 97.2527, "RA_OF_ASC_NODE": 283.6991, "ARG_OF_PERICENTER": 55.2512, "MEAN_ANOMALY": 304.8934, "EPHEMERIS_TYPE": 0, "CLASSIFICATION_TYPE": "U", "NORAD_CAT_ID": 59371, "ELEMENT_SET_NO": 999, "REV_AT_EPOCH": 9374, "BSTAR": 0.00020461, "MEAN_MOTION_DOT": 6.239e-05, "MEAN_MOTION_DDOT": 0}, "tle": {"line1": "1 59371U 24061A   25337.17148612  .00006239  00000+0  20461-3 0  9993", "line2": "2 59371  97.2527 283.6991 0002169  55.2512 304.8934 15.31965378 93747"}}, "geometry": {"type": "Point", "coordinates": [-81.53468741440281, 36.625174408521275]}}, {"type": "Feature", "properties": {"norad_id": 59625, "name": "LEGION 1", "group": "resource", "lat": 66.5779019743087, "lon": 34.33114574239791, "alt_km": 509.5435612928395, "timestamp": "2025-12-03T08:58:45.657061+00:00", "meta": {"OBJECT_NAME": "LEGION 1", "OBJECT_ID": "2024-081A", "EPOCH": "2025-12-03T03:55:49.791072", "MEAN_MOTION": 15.16325628, "ECCENTRICITY": 0.0004732, "INCLINATION": 97.523, "RA_OF_ASC_NODE": 51.8846, "ARG_OF_PERICENTER": 355.1804, "MEAN_ANOMALY": 4.9382, "EPHEMERIS_TYPE": 0, "CLASSIFICATION_TYPE": "U", "NORAD_CAT_ID": 59625, "ELEMENT_SET_NO": 999, "REV_AT_EPOCH": 8782, "BSTAR": 0.00037867, "MEAN_MOTION_DOT": 7.277e-05, "MEAN_MOTION_DDOT": 0}, "tle": {"line1": "1 59625U 24081A   25337.16377073  .00007277  00000+0  37867-3 0  9992", "line2": "2 59625  97.5230  51.8846 0004732 355.1804   4.9382 15.16325628 87829"}}, "geometry": {"type": "Point", "coordinates": [34.33114574239791, 66.5779019743087]}}, {"type": "Feature", "properties": {"norad_id": 59626, "name": "LEGION 2", "group": "resource", "lat": -65.96045922137691, "lon": -145.0546763484322, "alt_km": 523.7881295810512, "timestamp": "2025-12-03T08:58:45.657071+00:00", "meta": {"OBJECT_NAME": "LEGION 2", "OBJECT_ID": "2024-081B", "EPOCH": "2025-12-03T04:43:30.147744", "MEAN_MOTION": 15.16337873, "ECCENTRICITY": 0.0006257, "INCLINATION": 97.5234, "RA_OF_ASC_NODE": 52.0042, "ARG_OF_PERICENTER": 332.6143, "MEAN_ANOMALY": 27.4759, "EPHEMERIS_TYPE": 0, "CLASSIFICATION_TYPE": "U", "NORAD_CAT_ID": 59626, "ELEMENT_SET_NO": 999, "REV_AT_EPOCH": 8783, "BSTAR": 0.00033145, "MEAN_MOTION_DOT": 6.364e-05, "MEAN_MOTION_DDOT": 0}, "tle": {"line1": "1 59626U 24081B   25337.19687671  .00006364  00000+0  33145-3 0  9995", "line2": "2 59626  97.5234  52.0042 0006257 332.6143  27.4759 15.16337873 87839"}}, "geometry": {"type": "Point", "coordinates": [-145.0546763484322, -65.96045922137691]}}, {"type": "Feature", "properties": {"norad_id": 60182, "name": "ALOS-4 (DAICHI-4)", "group": "resource", "lat": 66.52877302854309, "lon": 53.64725135745902, "alt_km": 623.734743088211, "timestamp": "2025-12-03T08:58:45.657081+00:00", "meta": {"OBJECT_NAME": "ALOS-4 (DAICHI-4)", "OBJECT_ID": "2024-123A", "EPOCH": "2025-11-30T09:15:12.370176", "MEAN_MOTION": 14.79468497, "ECCENTRICITY": 0.000127, "INCLINATION": 97.9232, "RA_OF_ASC_NODE": 69.4089, "ARG_OF_PERICENTER": 105.4124, "MEAN_ANOMALY": 254.7228, "EPHEMERIS_TYPE": 0, "CLASSIFICATION_TYPE": "U", "NORAD_CAT_ID": 60182, "ELEMENT_SET_NO": 999, "REV_AT_EPOCH": 7648, "BSTAR": -8.429942e-06, "MEAN_MOTION_DOT": -1.14e-06, "MEAN_MOTION_DDOT": 0}, "tle": {"line1": "1 60182U 24123A   25334.38555984 -.00000114  00000+0 -84299-5 0  9997", "line2": "2 60182  97.9232  69.4089 0001270 105.4124 254.7228 14.79468497 76488"}}, "geometry": {"type": "Point", "coordinates": [53.64725135745902, 66.52877302854309]}}, {"type": "Feature", "properties": {"norad_id": 60452, "name": "LEGION 3", "group": "resource", "lat": -35.28514722466556, "lon": -134.58688627474058, "alt_km": 522.2834634289657, "timestamp": "2025-12-03T08:58:45.657092+00:00", "meta": {"OBJECT_NAME": "LEGION 3", "OBJECT_ID": "2024-146A", "EPOCH": "2025-12-03T03:12:13.181760", "MEAN_MOTION": 15.15596202, "ECCENTRICITY": 0.0013769, "INCLINATION": 45.0023, "RA_OF_ASC_NODE": 1.6242, "ARG_OF_PERICENTER": 144.0868, "MEAN_ANOMALY": 216.0938, "EPHEMERIS_TYPE": 0, "CLASSIFICATION_TYPE": "U", "NORAD_CAT_ID": 60452, "ELEMENT_SET_NO": 999, "REV_AT_EPOCH": 7227, "BSTAR": 0.00038426, "MEAN_MOTION_DOT": 7.178e-05, "MEAN_MOTION_DDOT": 0}, "tle": {"line1": "1 60452U 24146A   25337.13348590  .00007178  00000+0  38426-3 0  9995", "line2": "2 60452  45.0023   1.6242 0013769 144.0868 216.0938 15.15596202 72278"}}, "geometry": {"type": "Point", "coordinates": [-134.58688627474058, -35.28514722466556]}}]}